{
  "type": "FeatureCollection",
  "features": [
    {
      "type": "Feature",
      "properties": {
        "norad_id": 66581,
        "name": "STARLINK-35744",
        "group": "last-30-days",
        "lat": -40.3210723806098,
        "lon": 11.613364980722537,
        "alt_km": 417.7171813756968,
        "timestamp": "2025-12-20T05:41:48.740512+00:00",
        "meta_object_name": "STARLINK-35744",
        "meta_object_id": "2025-268AA",
        "meta_epoch": "2025-12-19T14:32:57.535872",
        "meta_mean_motion": 15.50868619,
        "meta_eccentricity": 0.0002007,
        "meta_inclination": 42.9976,
        "meta_ra_of_asc_node": 80.9302,
        "meta_arg_of_pericenter": 149.3188,
        "meta_mean_anomaly": 210.779,
        "meta_ephemeris_type": 0,
        "meta_classification_type": "U",
        "meta_norad_cat_id": 66581,
        "meta_element_set_no": 999,
        "meta_rev_at_epoch": 569,
        "meta_bstar": 0.002953,
        "meta_mean_motion_dot": 0.00178751,
        "meta_mean_motion_ddot": 0,
        "tle_line1": "1 66581U 25268AA  25353.60622148  .00178751  00000+0  29530-2 0  9995",
        "tle_line2": "2 66581  42.9976  80.9302 0002007 149.3188 210.7790 15.50868619  5695"
      },
      "geometry": {
        "type": "Point",
        "coordinates": [
          11.613364980722537,
          -40.3210723806098
        ]
      }
    },
    {
      "type": "Feature",
      "properties": {
        "norad_id": 66582,
        "name": "STARLINK-35746",
        "group": "last-30-days",
        "lat": -39.76455997582548,
        "lon": 13.974247179326593,
        "alt_km": 418.45515214779516,
        "timestamp": "2025-12-20T05:41:48.740522+00:00",
        "meta_object_name": "STARLINK-35746",
        "meta_object_id": "2025-268AB",
        "meta_epoch": "2025-12-19T14:32:27.681216",
        "meta_mean_motion": 15.50863129,
        "meta_eccentricity": 0.0003514,
        "meta_inclination": 42.9991,
        "meta_ra_of_asc_node": 80.9247,
        "meta_arg_of_pericenter": 153.85,
        "meta_mean_anomaly": 206.2539,
        "meta_ephemeris_type": 0,
        "meta_classification_type": "U",
        "meta_norad_cat_id": 66582,
        "meta_element_set_no": 999,
        "meta_rev_at_epoch": 569,
        "meta_bstar": 0.0024947,
        "meta_mean_motion_dot": 0.00150392,
        "meta_mean_motion_ddot": 0,
        "tle_line1": "1 66582U 25268AB  25353.60587594  .00150392  00000+0  24947-2 0  9999",
        "tle_line2": "2 66582  42.9991  80.9247 0003514 153.8500 206.2539 15.50863129  5695"
      },
      "geometry": {
        "type": "Point",
        "coordinates": [
          13.974247179326593,
          -39.76455997582548
        ]
      }
    },
    {
      "type": "Feature",
      "properties": {
        "norad_id": 66583,
        "name": "STARLINK-35941",
        "group": "last-30-days",
        "lat": -38.520445601705205,
        "lon": 18.541134915674892,
        "alt_km": 412.19891241611913,
        "timestamp": "2025-12-20T05:41:48.740533+00:00",
        "meta_object_name": "STARLINK-35941",
        "meta_object_id": "2025-268AC",
        "meta_epoch": "2025-12-19T16:04:41.529504",
        "meta_mean_motion": 15.51345807,
        "meta_eccentricity": 0.00013763,
        "meta_inclination": 42.9996,
        "meta_ra_of_asc_node": 80.5444,
        "meta_arg_of_pericenter": 334.8074,
        "meta_mean_anomaly": 25.2719,
        "meta_ephemeris_type": 0,
        "meta_classification_type": "U",
        "meta_norad_cat_id": 66583,
        "meta_element_set_no": 999,
        "meta_rev_at_epoch": 570,
        "meta_bstar": 0.01517546,
        "meta_mean_motion_dot": 0.01004457,
        "meta_mean_motion_ddot": 0,
        "tle_line1": "1 66583U 25268AC  25353.66992511  .01004457  00000+0  15175-1 0  9998",
        "tle_line2": "2 66583  42.9996  80.5444 0001376 334.8074  25.2719 15.51345807  5707"
      },
      "geometry": {
        "type": "Point",
        "coordinates": [
          18.541134915674892,
          -38.520445601705205
        ]
      }
    },
    {
      "type": "Feature",
      "properties": {
        "norad_id": 66584,
        "name": "STARLINK-35939",
        "group": "last-30-days",
        "lat": -38.61753520115623,
        "lon": 18.21066921608416,
        "alt_km": 417.7739340902408,
        "timestamp": "2025-12-20T05:41:48.740544+00:00",
        "meta_object_name": "STARLINK-35939",
        "meta_object_id": "2025-268AD",
        "meta_epoch": "2025-12-19T14:31:27.869088",
        "meta_mean_motion": 15.50751867,
        "meta_eccentricity": 0.0002615,
        "meta_inclination": 42.9992,
        "meta_ra_of_asc_node": 80.9182,
        "meta_arg_of_pericenter": 187.8218,
        "meta_mean_anomaly": 172.2602,
        "meta_ephemeris_type": 0,
        "meta_classification_type": "U",
        "meta_norad_cat_id": 66584,
        "meta_element_set_no": 999,
        "meta_rev_at_epoch": 569,
        "meta_bstar": 0.0012867,
        "meta_mean_motion_dot": 0.00076356,
        "meta_mean_motion_ddot": 0,
        "tle_line1": "1 66584U 25268AD  25353.60518367  .00076356  00000+0  12867-2 0  9998",
        "tle_line2": "2 66584  42.9992  80.9182 0002615 187.8218 172.2602 15.50751867  5698"
      },
      "geometry": {
        "type": "Point",
        "coordinates": [
          18.21066921608416,
          -38.61753520115623
        ]
      }
    },
    {
      "type": "Feature",
      "properties": {
        "norad_id": 66585,
        "name": "STARLINK-35963",
        "group": "last-30-days",
        "lat": -37.65650368667205,
        "lon": 21.301993898865412,
        "alt_km": 418.4427991239172,
        "timestamp": "2025-12-20T05:41:48.740554+00:00",
        "meta_object_name": "STARLINK-35963",
        "meta_object_id": "2025-268AE",
        "meta_epoch": "2025-12-19T16:03:40.627008",
        "meta_mean_motion": 15.50992135,
        "meta_eccentricity": 0.00041633,
        "meta_inclination": 42.9984,
        "meta_ra_of_asc_node": 80.5387,
        "meta_arg_of_pericenter": 160.1889,
        "meta_mean_anomaly": 199.9133,
        "meta_ephemeris_type": 0,
        "meta_classification_type": "U",
        "meta_norad_cat_id": 66585,
        "meta_element_set_no": 999,
        "meta_rev_at_epoch": 570,
        "meta_bstar": 0.0019989938,
        "meta_mean_motion_dot": 0.00120542,
        "meta_mean_motion_ddot": 0,
        "tle_line1": "1 66585U 25268AE  25353.66922022  .00120542  00000+0  19990-2 0  9993",
        "tle_line2": "2 66585  42.9984  80.5387 0004163 160.1889 199.9133 15.50992135  5703"
      },
      "geometry": {
        "type": "Point",
        "coordinates": [
          21.301993898865412,
          -37.65650368667205
        ]
      }
    },
    {
      "type": "Feature",
      "properties": {
        "norad_id": 66586,
        "name": "TJS-21",
        "group": "last-30-days",
        "lat": 32.28295624663876,
        "lon": -179.89083623139223,
        "alt_km": 17772.856140663047,
        "timestamp": "2025-12-20T05:41:48.740567+00:00",
        "meta_object_name": "TJS-21",
        "meta_object_id": "2025-269A",
        "meta_epoch": "2025-12-18T16:58:10.473888",
        "meta_mean_motion": 2.00580748,
        "meta_eccentricity": 0.6806869,
        "meta_inclination": 63.2733,
        "meta_ra_of_asc_node": 161.7218,
        "meta_arg_of_pericenter": 269.7428,
        "meta_mean_anomaly": 18.6663,
        "meta_ephemeris_type": 0,
        "meta_classification_type": "U",
        "meta_norad_cat_id": 66586,
        "meta_element_set_no": 999,
        "meta_rev_at_epoch": 55,
        "meta_bstar": -0.059507049,
        "meta_mean_motion_dot": 1.084e-05,
        "meta_mean_motion_ddot": 0,
        "tle_line1": "1 66586U 25269A   25352.70706567  .00001084  00000+0 -59507-1 0  9990",
        "tle_line2": "2 66586  63.2733 161.7218 6806869 269.7428  18.6663  2.00580748   558"
      },
      "geometry": {
        "type": "Point",
        "coordinates": [
          -179.89083623139223,
          32.28295624663876
        ]
      }
    },
    {
      "type": "Feature",
      "properties": {
        "norad_id": 66587,
        "name": "CZ-3B R/B",
        "group": "last-30-days",
        "lat": 25.242514482919248,
        "lon": -169.97110203215558,
        "alt_km": 34222.16724217386,
        "timestamp": "2025-12-20T05:41:48.740581+00:00",
        "meta_object_name": "CZ-3B R/B",
        "meta_object_id": "2025-269B",
        "meta_epoch": "2025-12-18T04:21:45.908640",
        "meta_mean_motion": 2.0405465,
        "meta_eccentricity": 0.75166459,
        "meta_inclination": 51.3412,
        "meta_ra_of_asc_node": 168.3764,
        "meta_arg_of_pericenter": 229.6756,
        "meta_mean_anomaly": 36.1575,
        "meta_ephemeris_type": 0,
        "meta_classification_type": "U",
        "meta_norad_cat_id": 66587,
        "meta_element_set_no": 999,
        "meta_rev_at_epoch": 56,
        "meta_bstar": 0.00058948144,
        "meta_mean_motion_dot": 0.0008861,
        "meta_mean_motion_ddot": -1.447425e-06,
        "tle_line1": "1 66587U 25269B   25352.18178135  .00088610 -14474-5  58948-3 0  9993",
        "tle_line2": "2 66587  51.3412 168.3764 7516645 229.6756  36.1575  2.04054650   560"
      },
      "geometry": {
        "type": "Point",
        "coordinates": [
          -169.97110203215558,
          25.242514482919248
        ]
      }
    }
  ]
}